<?xml version="1.0" encoding="UTF-8"?>
<kml xmlns="http://www.opengis.net/kml/2.2" xmlns:wpml="http://www.dji.com/wpmz/1.0.2">
  <Document>
    <wpml:author>Aalaapi Sky Generator</wpml:author>
    <wpml:createTime>1784463879912</wpml:createTime>
    <wpml:updateTime>1784463879912</wpml:updateTime>
    <wpml:missionConfig>
      <wpml:flyToWaylineMode>safely</wpml:flyToWaylineMode>
      <wpml:finishAction>goHome</wpml:finishAction>
      <wpml:exitOnRCLost>executeLostAction</wpml:exitOnRCLost>
      <wpml:executeRCLostAction>goBack</wpml:executeRCLostAction>
      <wpml:globalTransitionalSpeed>4</wpml:globalTransitionalSpeed>
      <wpml:droneInfo>
        <wpml:droneEnumValue>90</wpml:droneEnumValue>
        <wpml:droneSubEnumValue>0</wpml:droneSubEnumValue>
      </wpml:droneInfo>
    </wpml:missionConfig>
  </Document>
</kml>