<?xml version="1.0" encoding="UTF-8"?>
<kml xmlns="http://www.opengis.net/kml/2.2" xmlns:wpml="http://www.uav.com/wpmz/1.0.2">
  <Document>
    <wpml:author>Aalaapi Sky Generator</wpml:author>
    <wpml:createTime>1786234674371</wpml:createTime>
    <wpml:updateTime>1786234674371</wpml:updateTime>
    <wpml:missionConfig>
      <wpml:flyToWaylineMode>safely</wpml:flyToWaylineMode>
      <wpml:finishAction>goHome</wpml:finishAction>
      <wpml:exitOnRCLost>executeLostAction</wpml:exitOnRCLost>
      <wpml:executeRCLostAction>goBack</wpml:executeRCLostAction>
      <wpml:globalTransitionalSpeed>4</wpml:globalTransitionalSpeed>
      <wpml:droneInfo>
        <wpml:droneEnumValue>68</wpml:droneEnumValue>
        <wpml:droneSubEnumValue>0</wpml:droneSubEnumValue>
      </wpml:droneInfo>
    </wpml:missionConfig>
    <Folder>
      <wpml:templateType>waypoint</wpml:templateType>
      <wpml:templateId>0</wpml:templateId>
      <wpml:executeHeightMode>relativeToStartPoint</wpml:executeHeightMode>
      <wpml:waylineId>0</wpml:waylineId>
      <wpml:distance>0</wpml:distance>
      <wpml:duration>0</wpml:duration>
      <wpml:autoFlightSpeed>4</wpml:autoFlightSpeed>
      <wpml:payloadParam>
        <wpml:payloadPositionIndex>0</wpml:payloadPositionIndex>
        <wpml:payloadPitchControlMode>usePointSetting</wpml:payloadPitchControlMode>
      </wpml:payloadParam>
    </Folder>
  </Document>
</kml>